OBJECT_NAME,OBJECT_ID,EPOCH,MEAN_MOTION,ECCENTRICITY,INCLINATION,RA_OF_ASC_NODE,ARG_OF_PERICENTER,MEAN_ANOMALY,EPHEMERIS_TYPE,CLASSIFICATION_TYPE,NORAD_CAT_ID,ELEMENT_SET_NO,REV_AT_EPOCH,BSTAR,MEAN_MOTION_DOT,MEAN_MOTION_DDOT
SWARM A,2013-067B,2026-07-10T13:45:38.020608,15.51398989,.00033246,87.3309,47.5472,95.2607,264.9034,0,U,39452,999,70987,.12165584E-3,.7203E-4,0
SWARM C,2013-067C,2026-07-10T13:45:29.785824,15.51397977,.00033042,87.3308,46.1280,95.1655,264.9984,0,U,39453,999,70983,.12100426E-3,.7164E-4,0
BRITE-CA1 (TORONTO),2014-033L,2026-07-09T04:30:04.468608,14.72715027,.00780057,97.9764,318.7133,205.5751,154.1590,0,U,40020,999,64545,.1176575E-3,.733E-5,0
OCO 2,2014-035A,2026-07-10T20:18:42.779808,14.57130167,.0001472,98.2020,132.7798,81.9174,278.2192,0,U,40059,999,63949,.53697E-4,.197E-5,0
BRITE-PL2 (HEWELIUSZ),2014-049B,2026-07-10T06:27:33.976800,14.94677973,.00147276,97.9115,303.4501,38.1885,322.0375,0,U,40119,999,64489,.13523148E-3,.1409E-4,0
MMS 1,2015-011A,2026-07-10T22:00:01.998720,0.28372393,.8303496,72.4769,348.4801,167.9624,199.1028,0,U,40482,999,134,0,-.1038E-4,0
MMS 2,2015-011B,2026-07-10T22:00:01.998720,0.28372352,.8306312,72.4809,348.4791,167.9654,199.0909,0,U,40483,999,134,0,-.1038E-4,0
MMS 3,2015-011C,2026-07-10T22:00:01.998720,0.28372524,.8304748,72.4814,348.4910,167.9733,199.0648,0,U,40484,999,131,0,-.1037E-4,0
MMS 4,2015-011D,2026-07-10T22:00:01.998720,0.28372549,.8304694,72.4772,348.4744,167.9832,199.0592,0,U,40485,999,137,0,-.1038E-4,0
ASTROSAT,2015-052A,2026-07-10T07:12:44.926272,14.82547743,.00079638,5.9979,348.9768,0.8776,359.1365,0,U,40930,999,58326,.7549534E-4,.1292E-4,0
DAMPE,2015-078A,2026-07-10T19:56:50.826048,15.30845309,.0012069,97.4568,197.4151,1.2433,358.8836,0,U,41173,999,58816,.23021E-4,.609E-5,0
PISAT,2016-059B,2026-07-10T18:42:56.505888,14.69024738,.0030243,97.8188,191.2197,128.3266,232.0666,0,U,41784,999,52320,.9835E-4,.534E-5,0
HXMT (HUIYAN),2017-034A,2026-07-10T21:05:52.448064,15.18664592,.0032656,43.0149,51.1005,294.4304,65.3139,0,U,42758,999,50126,.15407E-3,.305E-4,0
FLYING LAPTOP,2017-042G,2026-07-10T20:20:48.967872,15.01296106,.0019871,97.4787,346.4877,46.2666,314.0200,0,U,42831,999,49000,.21263E-3,.2688E-4,0
ZHANGHENG 1-01 (CSES-1),2018-015C,2026-07-10T19:46:16.911840,15.20571791,.0015997,97.6884,357.9571,179.8173,180.3070,0,U,43194,999,46823,.21337E-3,.4614E-4,0
SALSAT,2020-068K,2026-07-10T10:17:36.763872,15.30129687,.00086995,97.8857,195.9138,210.5134,149.5600,0,U,46495,999,31891,.18731159E-3,.5381E-4,0
IXPE,2021-121A,2026-07-10T20:00:01.999008,15.10466072,.0007118,0.2285,138.5132,74.7888,288.1678,0,U,49954,999,582,.43935E-3,.8377E-4,0
