SWARM A                 
1 39452U 13067B   26191.57335672  .00007203  00000+0  12166-3 0  9997
2 39452  87.3309  47.5472 0003324  95.2607 264.9034 15.51398989709872
SWARM C                 
1 39453U 13067C   26191.57326141  .00007164  00000+0  12100-3 0  9993
2 39453  87.3308  46.1280 0003304  95.1655 264.9984 15.51397977709830
BRITE-CA1 (TORONTO)     
1 40020U 14033L   26190.18755172  .00000733  00000+0  11766-3 0  9997
2 40020  97.9764 318.7133 0078005 205.5751 154.1590 14.72715027645456
OCO 2                   
1 40059U 14035A   26191.84632847  .00000197  00000+0  53697-4 0  9992
2 40059  98.2020 132.7798 0001472  81.9174 278.2192 14.57130167639499
BRITE-PL2 (HEWELIUSZ)   
1 40119U 14049B   26191.26914325  .00001409  00000+0  13523-3 0  9994
2 40119  97.9115 303.4501 0014727  38.1885 322.0375 14.94677973644899
MMS 1                   
1 40482U 15011A   26191.91668980 -.00001038  00000+0  00000+0 0  9993
2 40482  72.4769 348.4801 8303496 167.9624 199.1028  0.28372393  1346
MMS 2                   
1 40483U 15011B   26191.91668980 -.00001038  00000+0  00000+0 0  9994
2 40483  72.4809 348.4791 8306312 167.9654 199.0909  0.28372352  1345
MMS 3                   
1 40484U 15011C   26191.91668980 -.00001037  00000+0  00000+0 0  9994
2 40484  72.4814 348.4910 8304748 167.9733 199.0648  0.28372524  1312
MMS 4                   
1 40485U 15011D   26191.91668980 -.00001038  00000+0  00000+0 0  9996
2 40485  72.4772 348.4744 8304694 167.9832 199.0592  0.28372549  1372
ASTROSAT                
1 40930U 15052A   26191.30051998  .00001292  00000+0  75495-4 0  9990
2 40930   5.9979 348.9768 0007963   0.8776 359.1365 14.82547743583266
DAMPE                   
1 41173U 15078A   26191.83114382  .00000609  00000+0  23021-4 0  9992
2 41173  97.4568 197.4151 0012069   1.2433 358.8836 15.30845309588163
PISAT                   
1 41784U 16059B   26191.77982067  .00000534  00000+0  98350-4 0  9990
2 41784  97.8188 191.2197 0030243 128.3266 232.0666 14.69024738523208
HXMT (HUIYAN)           
1 42758U 17034A   26191.87907926  .00003050  00000+0  15407-3 0  9995
2 42758  43.0149  51.1005 0032656 294.4304  65.3139 15.18664592501267
FLYING LAPTOP           
1 42831U 17042G   26191.84778898  .00002688  00000+0  21263-3 0  9990
2 42831  97.4787 346.4877 0019871  46.2666 314.0200 15.01296106490001
ZHANGHENG 1-01 (CSES-1) 
1 43194U 18015C   26191.82380685  .00004614  00000+0  21337-3 0  9998
2 43194  97.6884 357.9571 0015997 179.8173 180.3070 15.20571791468239
SALSAT                  
1 46495U 20068K   26191.42889773  .00005381  00000+0  18731-3 0  9990
2 46495  97.8857 195.9138 0008699 210.5134 149.5600 15.30129687318917
IXPE                    
1 49954U 21121A   26191.83335647  .00008377  00000+0  43935-3 0  9997
2 49954   0.2285 138.5132 0007118  74.7888 288.1678 15.10466072  5829
